IRIDIUM 126             
1 42809U 17039G   26001.68095567  .00000440  00000+0  15014-3 0  9999
2 42809  86.3950  63.2478 0002191 101.5648 258.5794 14.34215012446089
IRIDIUM 124             
1 42810U 17039H   26002.00502670  .00000689  00000+0  19888-3 0  9994
2 42810  86.4489 359.8323 0002433  91.2618 268.8862 14.43272017451144
IRIDIUM 128             
1 42811U 17039J   26001.74146704 -.00000001  00000+0 -72626-5 0  9998
2 42811  86.3963  94.7601 0002213  92.8354 267.3095 14.34217557446127
IRIDIUM 121             
1 42812U 17039K   26001.69998803  .00000013  00000+0 -23476-5 0  9999
2 42812  86.3947  63.2661 0002082  92.6997 267.4437 14.34217465445962
IRIDIUM 133             
1 42955U 17061A   26001.77317921  .00000269  00000+0  89002-4 0  9995
2 42955  86.3971  94.8614 0002160  99.4011 260.7429 14.34218174430929
IRIDIUM 100             
1 42956U 17061B   26001.76683690  .00000018  00000+0 -56649-6 0  9990
2 42956  86.3968  94.7860 0002147  99.1191 261.0248 14.34217690430924
IRIDIUM 122             
1 42957U 17061C   26001.73512388  .00000092  00000+0  25847-4 0  9998
2 42957  86.3968  94.7989 0002154  99.9173 260.2267 14.34217811430920
IRIDIUM 129             
1 42958U 17061D   26001.76049106  .00000534  00000+0  18376-3 0  9994
2 42958  86.4018  94.8463 0001402 109.8095 250.3252 14.34208166430944
